[{"OBJECT_NAME":"AEROCUBE 6A","OBJECT_ID":"2014-033AM","EPOCH":"2026-03-09T22:20:23.815680","MEAN_MOTION":14.96848607,"ECCENTRICITY":0.00387302,"INCLINATION":97.7128,"RA_OF_ASC_NODE":237.0691,"ARG_OF_PERICENTER":349.0559,"MEAN_ANOMALY":10.9816,"EPHEMERIS_TYPE":0,"CLASSIFICATION_TYPE":"U","NORAD_CAT_ID":40045,"ELEMENT_SET_NO":999,"REV_AT_EPOCH":63176,"BSTAR":0.00067890448,"MEAN_MOTION_DOT":7.845e-5,"MEAN_MOTION_DDOT":0},{"OBJECT_NAME":"STARLINK-3005","OBJECT_ID":"2021-059C","EPOCH":"2026-03-09T21:10:19.770528","MEAN_MOTION":15.01257236,"ECCENTRICITY":0.00022665,"INCLINATION":97.6587,"RA_OF_ASC_NODE":195.442,"ARG_OF_PERICENTER":88.8014,"MEAN_ANOMALY":271.347,"EPHEMERIS_TYPE":0,"CLASSIFICATION_TYPE":"U","NORAD_CAT_ID":48881,"ELEMENT_SET_NO":999,"REV_AT_EPOCH":25883,"BSTAR":-6.59291e-6,"MEAN_MOTION_DOT":-1.44e-6,"MEAN_MOTION_DDOT":0}]
